KUIPER-00104            
1 65142U 25171L   25352.00002315  .00012224  00000+0  17558-2 0  9990
2 65142  51.8990 158.3059 0003400 264.0824 225.0169 14.76753556  5577
KUIPER-00105            
1 65143U 25171M   25351.75563005  .00002320  00000+0  33314-3 0  9995
2 65143  51.8976 167.9624 0012532 189.8373 170.2346 14.79941073 20655
KUIPER-00106            
1 65144U 25171N   25351.72841789  .00003192  00000+0  29989-3 0  9992
2 65144  51.8914 167.2658 0009396 184.3970 175.6919 14.96544081 20668
KUIPER-00107            
1 65145U 25171P   25352.00002315 -.00398937  00000+0 -39089-1 0  9995
2 65145  51.8952 150.0062 0006776 254.1543 248.8010 14.94068881  4238
KUIPER-00108            
1 65146U 25171Q   25351.79464323  .00002458  00000+0  35103-3 0  9995
2 65146  51.9001 162.7287 0008193 197.4417 162.6265 14.79982176 20731
KUIPER-00109            
1 65147U 25171R   25351.83388756  .00002967  00000+0  41757-3 0  9993
2 65147  51.9002 157.4985 0011917 213.7605 146.2599 14.79968921 20806
KUIPER-00110            
1 65148U 25171S   25352.00002315  .00026097  00000+0  34364-2 0  9993
2 65148  51.8971 169.3751 0002515 231.7865 183.5342 14.79962952  2095
KUIPER-00111            
1 65149U 25171T   25351.81504880  .00004041  00000+0  55867-3 0  9993
2 65149  51.8971 175.1184 0008635 200.1875 159.8747 14.79937856 20552
